# From  26, 114
D/1766 G1 (Helfenzrieder),e,8.716,93.542,175.688,2.72381,0.219250,0.8521340,281.294,11/05.0/2023,2000,g  9.0,4.0
# From  89, 256
D/1884 O1 (Barnard),e,9.3073,332.8947,339.8264,3.084081,0.1819766,0.57124346,215.4621,11/05.0/2023,2000,g  9.0,4.0
# From  89, 256
D/1886 K1 (Brooks),e,10.9262,39.1626,208.4400,3.551798,0.1472420,0.46835068,272.9355,11/05.0/2023,2000,g  9.0,4.0
# From CCO 8
D/1894 F1 (Denning),e,1.4229,297.3385,198.4079,3.825587,0.1317216,0.69386482,90.3678,11/05.0/2023,2000,g  9.0,4.0
# From  13, 428
D/1895 Q1 (Swift),e,13.5234,135.7894,199.2582,3.723097,0.1371979,0.62683876,268.0119,11/05.0/2023,2000,g  9.0,4.0
# From  114, 147
D/1918 W1 (Schorr),e,6.8224,75.9290,326.4436,4.154765,0.1163816,0.31784797,323.7973,11/05.0/2023,2000,g  9.0,4.0
# From MPC 4601
D/1952 B1 (Harrington-Wilson),e,11.1704,116.4085,5.0009,3.079313,0.1823994,0.62507948,85.5309,11/05.0/2023,2000,g  9.0,4.0
# From MPC 11152
D/1977 C1 (Skiff-Kosai),e,3.1988,80.2888,25.2176,3.827104,0.1316433,0.26880183,109.3037,11/05.0/2023,2000,g  9.0,4.0
# From NK 779
D/1978 R1 (Haneda-Campos),e,4.9452,66.4917,307.1736,3.456029,0.1534045,0.62936984,30.8892,11/05.0/2023,2000,g  9.0,4.0
# From MPC 23764
D/1993 F2-D (Shoemaker-Levy),e,40.9103,160.7178,223.7475,4.219124,0.1137288,0.33202321,359.0564,11/05.0/2023,2000,g  9.0,4.0
# From MPEC 2022-S20
C/1995 O1 (Hale-Bopp),e,89.4076,282.4252,130.1967,177.1336,0.0004181,0.99498740,0.0000,03/30.7898/1997,2000,g -2.0,4.0
# From NK 1615
P/1996 R2 (Lagerkvist),e,2.6000,40.0588,333.4125,3.773990,0.1344321,0.31459910,231.8690,11/05.0/2023,2000,g 11.5,4.0
# From MPC 75703
P/1998 VS24 (LINEAR),e,5.0282,159.0754,244.6869,4.523313,0.1024517,0.24360191,216.3992,11/05.0/2023,2000,g 13.0,2.0
# From NK 731
P/1999 RO28 (LONEOS),e,7.5674,137.8824,231.3091,3.426090,0.1554196,0.67247443,247.3078,11/05.0/2023,2000,g 20.0,2.0
# From MPC 75704
P/1999 XN120 (Catalina),e,5.0299,285.2636,161.6794,4.179100,0.1153666,0.21072725,270.1880,11/05.0/2023,2000,g 13.5,2.0
# From NK 744
P/2000 R2 (LINEAR),e,11.6837,160.2948,176.5923,3.468198,0.1525978,0.53104110,244.3186,11/05.0/2023,2000,g 18.0,4.0
# From MPC 43019
P/2001 H5 (NEAT),e,8.3681,328.6357,224.6895,6.095663,0.0654897,0.59828580,193.1071,11/05.0/2023,2000,g 12.0,4.0
# From MPC 75704
P/2001 Q6 (NEAT),e,56.9120,22.1937,42.9238,7.970630,0.0437991,0.82365087,354.9494,11/05.0/2023,2000,g 13.5,4.0
# From MPEC 2023-UR6
P/2002 EJ57 (LINEAR),e,4.9814,330.2732,167.2550,6.459063,0.0600413,0.59293086,118.0535,11/05.0/2023,2000,g 12.5,4.0
# From MPEC 2023-V39
P/2002 T6 (NEAT-LINEAR),e,10.8568,206.0417,219.2322,7.792942,0.0453056,0.56535604,348.4360,11/05.0/2023,2000,g 10.5,4.0
# From MPC 75007
C/2002 VQ94 (LINEAR),e,70.7135,35.1656,99.8739,184.7838,0.0003924,0.96329688,2.5440,11/05.0/2023,2000,g  9.5,2.0
# From MPC 50354
P/2003 F2 (NEAT),e,11.6282,358.9772,192.2660,6.500901,0.0594626,0.54139508,86.4474,11/05.0/2023,2000,g 16.5,2.0
# From MPC 50139
P/2003 QX29 (NEAT),e,11.3970,264.5381,37.6718,8.007927,0.0434935,0.47198990,332.1177,11/05.0/2023,2000,g  8.5,4.0
# From MPC105235
P/2003 T12 (SOHO),e,11.0251,174.5850,219.7713,2.584653,0.2371924,0.77027735,302.6583,11/05.0/2023,2000,g 17.0,4.0
# From MPC 54558
P/2004 DO29 (Spacewatch-LINEAR),e,14.5287,147.3240,40.4774,7.305154,0.0499183,0.44183835,349.4609,11/05.0/2023,2000,g 13.5,2.0
# From MPEC 2022-YN2
P/2004 FY140 (LINEAR),e,2.1619,327.2733,254.1265,4.970121,0.0889516,0.19182047,252.7744,11/05.0/2023,2000,g 12.5,2.0
# From MPC 53304
P/2004 R3 (LINEAR-NEAT),e,12.7895,305.1348,37.6081,4.755629,0.0950369,0.25468161,73.8782,11/05.0/2023,2000,g 14.5,4.0
# From MPC 75705
P/2004 V5 (LINEAR-Hill),e,19.3480,47.7392,87.4582,8.006161,0.0435078,0.44624980,300.2096,11/05.0/2023,2000,g  8.0,4.0
# From MPC 75705
P/2004 V5-B (LINEAR-Hill),e,19.3480,47.7396,87.4611,8.006581,0.0435044,0.44627510,300.1725,11/05.0/2023,2000,g  8.0,4.0
# From MPC 54164
P/2005 E1 (Tubbiolo),e,4.2624,335.5280,193.8713,7.058538,0.0525572,0.37625105,2.0074,11/05.0/2023,2000,g 10.0,4.0
# From MPC 79019
P/2005 J1 (McNaught),e,31.7382,268.7981,338.9205,3.573233,0.1459191,0.56893012,270.2744,11/05.0/2023,2000,g 16.5,4.0
# From MPC 74246
P/2005 L1 (McNaught),e,7.6594,137.4856,151.6013,4.013298,0.1225891,0.21950896,88.5421,11/05.0/2023,2000,g  9.5,4.0
# From MPC 75706
P/2005 S2 (Skiff),e,3.1367,161.3639,229.6019,7.996216,0.0435890,0.19890284,277.0383,11/05.0/2023,2000,g  7.5,4.0
# From MPC 75706
P/2005 SB216 (LONEOS),e,24.1104,1.1276,83.2186,7.151316,0.0515377,0.46534531,318.6783,11/05.0/2023,2000,g 12.0,2.0
# From MPC 73461
P/2005 T3 (Read),e,6.2264,27.6698,6.7513,7.587564,0.0471575,0.17554877,312.1720,11/05.0/2023,2000,g  9.0,4.0
# From MPC 73461
P/2005 T4 (SWAN),e,60.2878,25.9479,41.8717,9.356008,0.0344404,0.92997805,227.1106,11/05.0/2023,2000,g 15.0,4.0
# From MPC 75706
P/2005 T5 (Broughton),e,21.3835,57.0687,304.7104,7.271894,0.0502612,0.55247177,330.4672,11/05.0/2023,2000,g 11.0,4.0
# From MPC 75707
P/2006 HR30 (Siding Spring),e,31.9048,309.8431,117.3954,7.804804,0.0452024,0.84353334,278.6437,11/05.0/2023,2000,g 11.0,4.0
# From MPC 75707
P/2007 C2 (Catalina),e,8.6124,275.2659,180.1540,7.006518,0.0531436,0.47285949,313.8669,11/05.0/2023,2000,g 10.0,4.0
# From MPC 84315
C/2007 D1 (LINEAR),e,41.5036,171.1855,339.7021,1143,0.0000255,0.99233453,0.0000,06/08.7526/2007,2000,g  3.5,4.0
# From MPC 82314
P/2007 K2 (Gibbs),e,7.6249,188.5898,347.3091,7.291084,0.0500629,0.68401439,302.4828,11/05.0/2023,2000,g 14.0,4.0
# From MPC 60925
P/2007 Q2 (Gilmore),e,10.2008,172.1903,162.8713,5.660334,0.0731882,0.66960653,78.5579,11/05.0/2023,2000,g 16.0,4.0
# From MPC 73462
P/2007 S1 (Zhao),e,5.9650,141.3316,245.2045,3.817051,0.1321637,0.33850801,52.1096,11/05.0/2023,2000,g 13.0,4.0
# From MPC 61994
P/2007 T2 (Kowalski),e,9.7508,3.3896,359.6709,3.044228,0.1855617,0.78565655,357.6588,11/05.0/2023,2000,g 18.5,4.0
# From MPC 64114
P/2008 O3 (Boattini),e,32.3295,47.6081,341.1691,8.211283,0.0418878,0.69664824,235.6951,11/05.0/2023,2000,g 13.0,4.0
# From MPC 75710
P/2008 Y3 (McNaught),e,38.7781,262.8296,238.0493,8.045230,0.0431913,0.44672940,234.9147,11/05.0/2023,2000,g  8.5,4.0
# From MPC 75710
P/2009 B1 (Boattini),e,22.2496,297.1046,128.9217,6.734215,0.0563993,0.63600630,305.3881,11/05.0/2023,2000,g 13.0,4.0
# From MPC 66466
C/2009 G1 (STEREO),e,8.5280,120.6895,175.5281,464.4578,0.0000985,0.99751598,0.0000,04/15.0627/2009,2000,g  9.0,4.0
# From MPC 75710
P/2009 O3 (Hill),e,16.2778,183.7093,154.4814,7.767206,0.0455310,0.68724409,239.9681,11/05.0/2023,2000,g 12.5,4.0
# From MPC 68902
P/2009 Q5 (McNaught),e,40.9846,160.2829,209.1435,7.426578,0.0486991,0.60984591,251.2238,11/05.0/2023,2000,g 10.0,4.0
# From MPC112389
P/2009 T2 (La Sagra),e,27.6168,216.3608,215.9030,7.714273,0.0460004,0.76713300,232.3798,11/05.0/2023,2000,g 14.0,4.0
# From MPC105235
P/2009 WX51 (Catalina),e,9.5924,31.5566,118.2538,3.082707,0.1820982,0.73932586,197.4983,11/05.0/2023,2000,g 19.0,2.0
# From MPC 74247
P/2009 Y2 (Kowalski),e,29.9696,262.0794,172.1480,6.546573,0.0588414,0.63728081,293.9385,11/05.0/2023,2000,g 13.0,4.0
# From MPC 75711
P/2010 A3 (Hill),e,14.8186,63.6502,42.2377,6.092729,0.0655370,0.73401566,327.7205,11/05.0/2023,2000,g 14.0,4.0
# From MPC 75008
P/2010 C1 (Scotti),e,9.1192,141.6594,3.2121,7.114084,0.0519428,0.26201448,267.0305,11/05.0/2023,2000,g  9.5,4.0
# From MPC 75008
P/2010 D2 (WISE),e,57.1138,319.8733,119.9328,6.721869,0.0565547,0.45170898,284.0958,11/05.0/2023,2000,g 16.0,4.0
# From MPC 75009
P/2010 E2 (Jarnac),e,15.3929,177.7948,8.2741,8.639490,0.0388125,0.71967655,193.2628,11/05.0/2023,2000,g 14.0,4.0
# From MPC 72851
P/2010 H2 (Vales),e,14.2795,64.1873,128.0408,3.831763,0.1314033,0.19711992,295.5216,11/05.0/2023,2000,g  6.0,4.0
# From MPC 70361
P/2010 H3 (SOHO),e,23.1348,77.1658,26.0757,3.036031,0.1863137,0.98547812,0.0000,05/25.1127/2026,2000,g 20.0,2.0
# From MPC 73463
P/2010 H4 (Scotti),e,2.3179,44.6165,179.1952,6.607404,0.0580307,0.26603503,285.0312,11/05.0/2023,2000,g 10.5,4.0
# From MPC 74637
P/2010 H5 (Scotti),e,14.0575,24.5909,174.6147,7.175275,0.0512798,0.15291983,256.0534,11/05.0/2023,2000,g 13.0,2.0
# From MPC 98558
P/2010 J3 (McMillan),e,13.2450,106.5079,157.5201,8.984619,0.0365978,0.72465901,176.6220,11/05.0/2023,2000,g 11.0,4.0
# From MPC 84315
P/2010 JC81 (WISE),e,38.8219,30.8799,12.4473,8.103671,0.0427249,0.77829068,195.3328,11/05.0/2023,2000,g  9.0,4.0
# From MPC 74248
P/2010 T2 (PANSTARRS),e,7.8891,57.9672,352.0974,5.630666,0.0737674,0.32898968,350.8438,11/05.0/2023,2000,g 11.5,4.0
# From MPEC 2023-O88
P/2010 TO20 (LINEAR-Grauer),e,2.4788,43.2729,267.8225,5.832013,0.0699804,0.05548539,23.6876,11/05.0/2023,2000,g  9.0,4.0
# From MPC 82316
P/2010 U1 (Boattini),e,8.2247,280.8046,86.3542,6.495054,0.0595429,0.24911204,298.2022,11/05.0/2023,2000,g  9.5,4.0
# From MPEC 2023-J95
C/2010 U3 (Boattini),e,55.5672,42.9872,88.0390,3817,0.0000042,0.99778928,0.0000,02/25.9307/2019,2000,g  1.0,4.0
# From MPC 79021
P/2010 UH55 (Spacewatch),e,8.0374,232.9007,225.1595,6.653380,0.0574302,0.56428728,263.9995,11/05.0/2023,2000,g 11.0,4.0
# From MPC 75009
P/2010 WK (LINEAR),e,11.4023,11.3440,40.9969,5.762266,0.0712548,0.69070159,341.5226,11/05.0/2023,2000,g 14.5,2.0
# From MPC 84021
P/2011 C2 (Gibbs),e,10.8879,11.9535,160.3953,7.412947,0.0488335,0.26965165,212.4618,11/05.0/2023,2000,g  9.0,4.0
# From MPC 79866
P/2011 FR143 (Lemmon),e,15.9732,190.8741,349.8528,6.868912,0.0547485,0.45137680,254.8857,11/05.0/2023,2000,g 14.0,2.0
# From MPC 82317
P/2011 JB15 (Spacewatch-Boattini),e,19.1351,153.5579,110.9749,7.372879,0.0492321,0.31497668,212.6222,11/05.0/2023,2000,g  9.0,4.0
# From MPC 87913
P/2011 N1 (ASH),e,35.7783,77.6273,330.4021,6.240400,0.0632245,0.54551556,264.1306,11/05.0/2023,2000,g 11.5,4.0
# From MPC 75714
P/2011 NO1 (Elenin),e,15.2454,295.8151,263.7179,5.536291,0.0756616,0.77484350,354.5559,11/05.0/2023,2000,g 15.0,4.0
# From MPEC 2022-ED3
P/2011 P1 (McNaught),e,5.6578,4.2914,349.1726,7.458064,0.0483910,0.32739394,234.1535,11/05.0/2023,2000,g  9.0,4.0
# From MPEC 2022-HC2
